{
    "links": {
        "self": "http://www.neowsapp.com/rest/v1/neo/3363421?api_key=iIulBulltgU6a56xZRHN4H3l9WmuAYTsLGpBGhQ2"
    },
    "id": "3363421",
    "neo_reference_id": "3363421",
    "name": "(2006 XJ2)",
    "designation": "2006 XJ2",
    "nasa_jpl_url": "http://ssd.jpl.nasa.gov/sbdb.cgi?sstr=3363421",
    "absolute_magnitude_h": 24.0,
    "estimated_diameter": {
        "kilometers": {
            "estimated_diameter_min": 0.0421264611,
            "estimated_diameter_max": 0.0941976306
        },
        "meters": {
            "estimated_diameter_min": 42.1264610556,
            "estimated_diameter_max": 94.1976305719
        },
        "miles": {
            "estimated_diameter_min": 0.0261761612,
            "estimated_diameter_max": 0.0585316759
        },
        "feet": {
            "estimated_diameter_min": 138.2101784897,
            "estimated_diameter_max": 309.0473542854
        }
    },
    "is_potentially_hazardous_asteroid": false,
    "close_approach_data": [
        {
            "close_approach_date": "2006-11-26",
            "close_approach_date_full": "2006-Nov-26 20:10",
            "epoch_date_close_approach": 1164571800000,
            "relative_velocity": {
                "kilometers_per_second": "5.8163660203",
                "kilometers_per_hour": "20938.9176730009",
                "miles_per_hour": "13010.6291507599"
            },
            "miss_distance": {
                "astronomical": "0.1170582447",
                "lunar": "45.5356571883",
                "kilometers": "17511664.073058789",
                "miles": "10881243.4850337282"
            },
            "orbiting_body": "Earth"
        }
    ],
    "orbital_data": {
        "orbit_id": "10",
        "orbit_determination_date": "2017-04-06 09:07:23",
        "first_observation_date": "2006-12-12",
        "last_observation_date": "2006-12-22",
        "data_arc_in_days": 10,
        "observations_used": 30,
        "orbit_uncertainty": "8",
        "minimum_orbit_intersection": ".115234",
        "jupiter_tisserand_invariant": "4.178",
        "epoch_osculation": "2454085.5",
        "eccentricity": ".3434874237824678",
        "semi_major_axis": "1.663648491274895",
        "inclination": "8.691447129645894",
        "ascending_node_longitude": "257.8390186315848",
        "orbital_period": "783.7738736889326",
        "perihelion_distance": "1.092206156927292",
        "perihelion_argument": "157.0281021430224",
        "aphelion_distance": "2.235090825622499",
        "perihelion_time": "2454058.109838601510",
        "mean_anomaly": "12.58074354666466",
        "mean_motion": ".4593161523815711",
        "equinox": "J2000",
        "orbit_class": {
            "orbit_class_type": "AMO",
            "orbit_class_description": "Near-Earth asteroid orbits similar to that of 1221 Amor",
            "orbit_class_range": "1.017 AU < q (perihelion) < 1.3 AU"
        }
    },
    "is_sentry_object": false
}